ASO-S                   
1 54029U 22129A   25065.73983863  .00000368  00000+0  10253-3 0  9991
2 54029  98.2742  72.7031 0015716  89.7872 270.5124 14.51757049127593
HJ-2E                   
1 54035U 22132A   25065.57926181  .00012951  00000+0  61737-3 0  9998
2 54035  97.3846  73.8675 0006996 185.2810 174.8352 15.19212123133315
COSMOS 2561             
1 54109U 22137A   25065.76070163  .00012321  00000+0  32410-3 0  9993
2 54109  96.9822 139.5156 0011180 301.5187  58.4966 15.38636530134177
GONETS-M 23             
1 54150U 22139A   25065.73090727  .00000036  00000+0  18773-3 0  9992
2 54150  82.5013 278.7598 0021355 159.8216 200.3712 12.42886295107572
GONETS-M 24             
1 54151U 22139B   25065.70447988  .00000036  00000+0  19040-3 0  9993
2 54151  82.4930 278.1552 0016296 169.9827 190.1581 12.42889033107575
GONETS-M 25             
1 54152U 22139C   25065.52966216  .00000033  00000+0  16445-3 0  9997
2 54152  82.4996 278.7000 0020094 169.1066 191.0453 12.42884458107552
SKIF-D                  
1 54153U 22139D   25065.38808796  .00000031  00000+0  00000+0 0  9994
2 54153  89.9764  96.7804 0008116 328.3247  31.6955  5.00430200 40706
MATS                    
1 54227U 22147A   25065.73495386  .00005738  00000+0  45231-3 0  9999
2 54227  97.6752  66.1485 0017836 343.4772  16.5868 15.01031654127531
JILIN-1 GAOFEN 03D54    
1 54254U 22155D   25065.72298296  .00028162  00000+0  86603-3 0  9992
2 54254  97.5729 185.5175 0007951 243.3289 116.7140 15.33616486127694
EOS-6 (OCEANSAT-3)      
1 54361U 22158A   25065.71499800  .00000639  00000+0  18784-3 0  9991
2 54361  98.3482 165.2188 0001002  64.0114 296.1182 14.46982909120234
ASTROCAST-0304          
1 54367U 22158G   25065.56046757  .00032687  00000+0  54143-3 0  9996
2 54367  97.4356 179.6038 0008653 209.9793 150.0965 15.52068332127186
ASTROCAST-0302          
1 54369U 22158J   25065.54080716  .00037024  00000+0  62880-3 0  9996
2 54369  97.4393 179.9427 0005889 199.6613 160.4413 15.51363592127197
ASTROCAST-0301          
1 54370U 22158K   25065.58680394  .00035780  00000+0  60523-3 0  9999
2 54370  97.4454 180.2494 0004667 220.4707 139.6198 15.51491071127200
DONGPO 09               
1 54685U 22167D   25065.58675268  .00014137  00000+0  60315-3 0  9994
2 54685  97.6421 216.7825 0003435 329.7881  30.3157 15.23025387123969
DONGPO 08               
1 54686U 22167E   25065.58442141  .00012986  00000+0  57850-3 0  9997
2 54686  97.6362 215.7872 0011172  14.2739 345.8810 15.21521116123936
2022-167F               
1 54687U 22167F   25065.70418275  .00027135  00000+0  75325-3 0  9992
2 54687  97.6063 217.8140 0005544 297.4397  62.6282 15.36863716124150
DONGPO 10               
1 54689U 22167H   25065.60464415  .00013682  00000+0  60123-3 0  9992
2 54689  97.6452 216.7208 0005590 323.7574  36.3282 15.22019597123947
JILIN-1 GAOFEN 03D48    
1 54695U 22167P   25065.56489977  .00013816  00000+0  60245-3 0  9998
2 54695  97.6383 216.1026 0007933 327.2828  32.7915 15.22267279123948
STAR VIBE               
1 55009U 23001A   25065.71764960  .00013224  00000+0  47726-3 0  9993
2 55009  97.3837 126.2584 0007196   0.8952 359.2300 15.28605381120490
BRO-8                   
1 55011U 23001C   25065.45417041  .00018661  00000+0  73313-3 0  9993
2 55011  97.3906 125.8980 0008908   5.9033 354.2309 15.25705436120407
CONNECTA T1.2           
1 55012U 23001D   25065.13158604  .00013715  00000+0  45777-3 0  9994
2 55012  97.3917 128.4250 0007981 351.7757   8.3352 15.31139505120538
BIRKELAND               
1 55015U 23001G   25065.56585219  .00012267  00000+0  42639-3 0  9995
2 55015  97.3942 129.0404 0007261 349.4458  10.6628 15.29853579120612
ION SCV-008             
1 55051U 23001AU  25065.27636364  .00008448  00000+0  38519-3 0  9999
2 55051  97.5868 151.0732 0017308 210.4560 149.5671 15.20764981120039
ION SCV-007             
1 55060U 23001BD  25065.21495283  .00000874  00000+0  13162-3 0  9998
2 55060  97.9620 130.9646 0013461  50.8166 309.4238 14.76826712117160
TAUSAT-2                
1 55073U 23001BS  25065.18986574  .00427545  00000+0  15252-2 0  9995
2 55073  97.3696 141.0289 0007577 261.9013  98.1399 15.87824252121417
FLOCK 4Y-23             
1 55080U 23001BZ  25065.14799676  .00057732  00000+0  94105-3 0  9996
2 55080  97.3853 135.9474 0009314 300.7815  59.2520 15.52387276121079
HUYGENS                 
1 55093U 23001CN  25065.76223961  .00010090  00000+0  35096-3 0  9997
2 55093  97.3874 128.9817 0010662 321.2516  38.7959 15.29854767120663
SHARJAHSAT-1            
1 55104U 23001CZ  25065.71413391  .00017931  00000+0  59323-3 0  9993
2 55104  97.3846 127.5094 0007964 356.8662   3.2528 15.31364335120562
2023-003A               
1 55133U 23003A   25065.59520191  .00037729  00000+0  81426-3 0  9996
2 55133  97.1842 139.1054 0005022   5.0668 355.0631 15.44441729119901
HORUS 1                 
1 55690U 23025A   25065.74196315  .00010213  00000+0  43234-3 0  9996
2 55690  97.3915 143.7141 0002363 168.7800 191.3490 15.23366171112888
HORUS 2                 
1 55844U 23032A   25065.51336408  .00010886  00000+0  45861-3 0  9993
2 55844  97.3976 143.8927 0005218 223.9603 136.1220 15.23503753110285
GLOBAL-19               
1 55982U 23041B   25065.33561371  .00026161  00000+0  67851-3 0  9991
2 55982  42.0069  51.5664 0002084  82.4062 277.7014 15.38456655109865
DEWASAT-2               
1 56180U 23054C   25065.53192486  .00889756  46605-3  88736-3 0  9992
2 56180  97.3374 341.6854 0006242 166.9697 193.1749 16.11261113107223
BRO-9                   
1 56185U 23054H   25065.70081200  .00025659  00000+0  58122-3 0  9992
2 56185  97.3340 326.3464 0003790 333.6530  26.4525 15.43086596106281
ION SCV-010             
1 56192U 23054Q   25065.21670739  .00007341  00000+0  33555-3 0  9998
2 56192  97.4368 315.8971 0017961  45.7865 314.4842 15.20710237104958
GHOST-1                 
1 56195U 23054T   25065.29113036  .00024237  00000+0  51466-3 0  9995
2 56195  97.3356 326.9209 0004653 316.5213  43.5669 15.45012532106278
GHOST-2                 
1 56197U 23054V   25065.26440231  .00040256  00000+0  68100-3 0  9996
2 56197  97.3351 328.8658 0003981 305.7784  54.3098 15.51467098106409
TOMORROW-R1             
1 56199U 23054X   25065.27763600  .00169094  00000+0  10903-2 0  9996
2 56199  97.3326 333.7833 0001886 168.7099 191.4209 15.75649595106712
FACSAT-2                
1 56205U 23054AD  25065.73454492  .00042126  00000+0  60293-3 0  9995
2 56205  97.3399 332.1686 0004031 285.0237  75.0571 15.56083602106631
CONNECTA T2.1           
1 56210U 23054AJ  25065.70241718  .00044819  00000+0  66341-3 0  9994
2 56210  97.3320 330.5873 0004038 292.4012  67.6814 15.55152640106579
TELEOS-2                
1 56310U 23057C   25065.26415597  .00011419  00000+0  92095-3 0  9992
2 56310   9.9898  11.2341 0000885 266.2155  93.7958 14.96369548102593
SNIPE 4                 
1 56744U 23072B   25065.73207527  .00018148  00000+0  74812-3 0  9997
2 56744  97.5439 257.8984 0009337 193.7440 166.3544 15.24095081 98515
SNIPE 2                 
1 56745U 23072C   25065.73784456  .00019205  00000+0  77453-3 0  9998
2 56745  97.5614 258.9605 0006956 210.2464 149.8373 15.24839629 98530
2023-072G               
1 56749U 23072G   25065.77880978  .00018857  00000+0  70713-3 0  9996
2 56749  97.5245 257.8767 0006277 215.7793 144.3026 15.27273129 98627
OTTER PUP               
1 56933U 23084B   25065.60681415  .00031820  00000+0  81019-3 0  9997
2 56933  97.5534 195.0787 0005281 143.3491 216.8116 15.39499813 96304
GEISAT PRECURSOR        
1 56934U 23084C   25065.72229070  .00009510  00000+0  37313-3 0  9995
2 56934  97.5616 191.2170 0007506 187.1384 172.9748 15.25932137 96038
EIVE                    
1 56937U 23084F   25065.71532938  .00199641  00000+0  15941-2 0  9994
2 56937  97.5409 200.0054 0004644 227.3867 132.7004 15.70505616 96637
LAYAN-23                
1 56939U 23084H   25065.73974316  .00047304  00000+0  61952-3 0  9990
2 56939  97.5432 200.5574 0002770 173.8896 186.2393 15.58457277 96676
AFRL-XVI                
1 56942U 23084L   25065.39429398  .00044641  00000+0  82057-3 0  9991
2 56942  97.5555 198.6428 0003597 177.3919 182.7351 15.49088895 96495
BLACKJACK ACES-3        
1 56950U 23084U   25065.24004358  .00012991  00000+0  59514-3 0  9994
2 56950  97.5596 192.1366 0008178 165.8865 194.2600 15.20585422 96055
BLACKJACK ACES-4        
1 56952U 23084W   25065.38320514  .00042900  00000+0  97083-3 0  9992
2 56952  97.5588 195.5644 0007981 163.8582 196.2921 15.42984144 96291
BLACKJACK ACES-2        
1 56955U 23084Z   25065.54885985  .00016195  00000+0  73792-3 0  9999
2 56955  97.5605 192.5857 0008900 168.8056 191.3379 15.20712215 96118
BLACKJACK ACES-1        
1 56956U 23084AA  25065.32868110  .00016219  00000+0  73472-3 0  9999
2 56956  97.5575 192.1473 0008709 171.9116 188.2261 15.20915528 45799
ION SCV-011             
1 56957U 23084AB  25065.34885186  .00009814  00000+0  43527-3 0  9995
2 56957  98.0935 207.6786 0008079 213.8667 146.2052 15.21800084 94485
GHOST-3                 
1 56958U 23084AC  25065.30270758  .00016657  00000+0  56758-3 0  9998
2 56958  97.5619 192.2319 0009521 171.1927 188.9482 15.30415134 96062
TOMORROW-R2             
1 56962U 23084AG  25065.35866103  .00027954  00000+0  76461-3 0  9998
2 56962  97.5574 194.3358 0008944 161.9006 198.2558 15.37291460 96212
AFR-1                   
1 56964U 23084AJ  25065.59808109  .00007476  00000+0  32561-3 0  9998
2 56964  97.5651 190.0090 0012143 176.0665 184.0669 15.22445242 95937
DROID.001               
1 56965U 23084AK  25065.34720802  .00035649  00000+0  89977-3 0  9991
2 56965  97.5561 194.8318 0007772 163.2879 196.8624 15.39727917 96258
SPEI SATELLES           
1 56991U 23084BT  25065.35491048  .00249560  00000+0  15630-2 0  9991
2 56991  97.5407 201.5837 0002928 252.1297 107.9649 15.76092108 96717
